#dP2024  3 30  6  0  0.00000000      96 __u+U IGS20 EXT  IAC
## 2307 540000.00000000   900.00000000 60399 0.2500000000000
+  120   C06C07C08C09C10C11C12C13C14C16C19C20C21C22C23C24C25
+        C26C27C28C29C30C32C33C34C35C36C37C38C39C40C41C42C43
+        C44C45C46E02E03E04E05E07E08E09E10E11E12E13E14E15E18
+        E19E21E24E25E26E27E30E31E33E34E36G01G02G03G04G05G06
+        G07G08G09G10G11G12G13G14G15G16G17G18G19G20G21G22G23
+        G24G25G26G27G28G29G30G31G32J02J03J04R01R02R03R04R05
+        R07R08R09R11R12R13R14R15R16R17R18R19R20R21R22R24R25
+        R26  0  0  0  0  0  0  0  0  0  0  0  0  0  0  0  0
++        11  9  9  9  9  9  9  9  9 10  9  8  9 10  9  8  8
++         8  8  8 10  8 10  7  8  9  8  8  9 10  9  7  9  8
++         9  8  8  8  8  8  8  8  8  7  8  8  8  8  8  8  9
++         8  9  8  7  8  8  8  9  8  8  8  8  8  8  7  8  9
++         8  7  8  8 10  8  8  8  8  8  8  9  7  9  8  8  7
++         8  8  8  8  8  8  8  8  7  9  9  0  8  9  7  7  8
++         8  7  9  8  8  9  8  8  9  8  9  9  9  9  8  8  9
++         6  0  0  0  0  0  0  0  0  0  0  0  0  0  0  0  0
%c M  cc GPS ccc cccc cccc cccc cccc ccccc ccccc ccccc ccccc
%c cc cc ccc ccc cccc cccc cccc cccc ccccc ccccc ccccc ccccc
%f  0.0000000  0.000000000  0.00000000000  0.000000000000000
%f  0.0000000  0.000000000  0.00000000000  0.000000000000000
%i    0    0    0    0      0      0      0      0         0
%i    0    0    0    0      0      0      0      0         0
/* IAC                                ULTRA-RAPID PREDICTION
/* S/V CLOCKS ARE ALIGNED TO GNSS TIME                      
/* G:C1WC2W R:C1PC2P E:C1XC5X C:C2IC6I J:C1CC2S             
/* PCV:IGS20_2290 OL/AL:FES2004  NONE     YN ORB:CoN CLK:CoN
*  2024 03 30 16 15  0.00000000
PC06  -8888.820937  41178.036295   4194.297852    309.826448
PC07  -6430.479986  27521.107937 -31178.361210   -866.772406
PC08 -20103.823290  25332.985173  26932.019596     17.973693
PC09  -6415.669557  41945.128328  -2050.728198   -693.083530
PC10   2319.335257  30050.313417 -28986.063158     22.711548
PC11  15492.916125  -1157.947315  23245.204367    486.595151
PC12  13860.219645  19081.902408  14955.557161   -223.034363
PC13 -11223.676778  26243.496240  31092.231207    428.197470
PC14  26059.587189   1270.635204  -9794.262500    526.801312
PC16 -12052.080409  39558.137986   9396.165049   -427.770254
PC19 -21221.600788   5513.396521  17311.021807   -916.495979
PC20 -26965.573623  -6830.195238   2490.215838   -309.467015
PC21  16748.729403  16231.575714  15318.443447   -961.878412
PC22  -2972.767767  15423.236054  23067.439851    -56.298348
PC23  12707.076444 -22310.293636  10937.859923   -775.592734
PC24  19676.383743   1354.393899 -19768.122020    947.658645
PC25  22407.270124 -15561.653011  -5935.597665    362.384394
PC26   5729.435012  16336.520003 -21900.050401   -270.201329
PC27 -10378.496993 -24885.624530  -7188.521551    291.994148
PC28    553.803739 -26548.619626   8577.332515    222.980074
PC29 -12843.199135  11790.641885 -21798.266294    261.527010
PC30 -16901.743375 -10023.823570 -19815.369290    -46.933735
PC32 -16866.810863 -16103.455907 -15322.702986   -592.434499
PC33  21224.485205  -5600.778651 -17208.010716   -964.435058
PC34  17004.636803   8359.872989  20478.881811    401.429108
PC35    266.021196  26523.541478  -8753.198608    398.815317
PC36 -22809.889783  14827.525133   6211.745256     35.485508
PC37  -4992.905092 -16707.926777  21797.707628   -951.066160
PC38 -25561.539124  26811.569692  20072.531391    145.925101
PC39 -12894.722514  37394.343136  14991.506411     -7.801260
PC40  -9971.609543  21701.422004 -34733.437344    -63.187307
PC41   3816.983770 -15186.940932 -23039.639932   -915.140266
PC42  26740.256061   7872.604349   -768.218020   -444.694017
PC43  13384.659194 -10791.314431  21962.219055     66.093423
PC44  11262.055174  24587.650286   6937.512513    428.861820
PC45 -12751.585813  22224.314455 -11034.893839    -78.100762
PC46 -20000.011377   -583.092598  19428.717632   -135.925476
PE02  12295.958781 -16579.017753  21211.928883    115.433219
PE03   1606.618155 -21117.460892 -20681.548635   -103.850144
PE04  15118.005677  24873.926968   5381.269482   -361.882005
PE05  17104.511076  -5064.513636 -23610.865358   4733.924710
PE07 -22691.959218 -14374.521447  12458.174567   -111.806006
PE08 -14647.266191 -24993.107863  -6107.210649   -247.140024
PE09  22615.842446  14504.621751 -12397.615763   -389.236961
PE10   9812.211465  15671.641330  23109.253628   -613.313167
PE11  15388.195967   4695.770004  24834.375160   3109.396118
PE12   3421.413783  23205.065809  18067.650757   -971.736018
PE13 -15072.570875  -5329.989339 -24909.032685    -20.775145
PE14 -14601.964441 -26669.099611   5125.682608     81.175339
PE15  -3012.507358 -23504.299141 -17724.186892    -94.217575
PE18   4445.560454  22573.546695 -11407.435111    494.543952
PE19  -3532.674409  19751.228006  21775.289007   -335.541761
PE21 -27242.159530   9076.594923  -7189.350342   -586.656692
PE24  26749.028233   4451.633721 -11915.481592   -679.968237
PE25  27424.163349  -8832.077622   6800.181678      2.745393
PE26 -18147.303761  16163.896565 -16901.319582    411.471963
PE27 -26906.007912  -4102.222368  11620.453125   -311.841834
PE30 -10474.945115 -14840.418972  23352.641268   -147.911385
PE31  10720.689593  14700.363228 -23349.248952    -19.561156
PE33 -10947.533485  27502.720934   -267.415165      9.737309
PE34  10576.408712 -27644.515562   -268.864834   -102.886718
PE36  18117.136493 -15615.767181  17427.967868   -206.463284
PG01  10919.883568 -23857.604397   2384.523711    176.879886
PG02  14427.813014 -18006.851456  13392.948439   -461.728160
PG03  19616.553452 -12272.005744 -13075.939406    282.549552
PG04  10062.691379 -11539.362748 -21677.169126    327.224841
PG05 -26019.856953   5561.936039   -518.219752   -167.317898
PG06  -8377.532261 -15105.179409 -20076.463111    344.879147
PG07   4038.712393 -25235.204814   6750.475539    -96.144595
PG08  16779.545500  -2951.649355  20371.905963     90.529128
PG09  -2577.360491 -20583.930105 -16634.114799    142.753948
PG10  12673.178446  11639.075296  20530.976037     -3.868590
PG11 -15148.801165  -2507.077321 -21644.511156   -622.254063
PG12 -21066.235136  10831.555437 -12239.077198   -492.021656
PG13 -18596.004462  -7261.906488  17428.245019    638.577202
PG14  -8391.019355 -14030.616433  20991.328301    363.780172
PG15 -16427.182484   5049.141096  19807.392203    143.142692
PG16  26408.121826   1008.877648  -4820.195793   -328.842317
PG17 -11734.977723 -23007.752912   6247.322135    711.596461
PG18  -4322.601784  25073.593849   7284.972812   -585.477463
PG19 -16968.165960 -20363.992740  -3878.505719    461.237625
PG20 -23524.914815   -529.739885 -12106.295979    382.010903
PG21  15716.960943 -12658.749168  17178.943929    129.274732
PG22 -15769.470599 -11471.829859  18323.048675      7.985814
PG23  -1057.980041  15186.201387  21768.625034    189.129335
PG24 -14782.749794  16665.028496  13735.846392   -453.262824
PG25 -11363.739843  15635.015481 -18440.655717    492.607418
PG26  21032.865458   6310.037918 -15340.841515    173.126159
PG27  20656.170340   9249.722261  13955.792812    -15.447356
PG28   7795.826528  17512.867740 -18401.271276   -183.961319
PG29  -1010.766395  19562.770327 -17939.471343   -603.393232
PG30  -4176.152987 -21313.524917  15242.544013   -412.424395
PG31  13644.984795   7395.478489 -21743.764534   -228.019805
PG32  15347.783417  21571.025653   3445.298228   -617.243726
PJ02 -33318.741619  16339.893654 -15347.540592     -3.482832
PJ03 -22383.540827  30798.887741 -13473.759762     -0.137812
PJ04      0.000000      0.000000      0.000000     50.536822
PR01   6057.127987  -9207.869461 -22995.726365     81.100606
PR02 -10947.539433 -15148.092030 -17275.141583    -22.661468
PR03 -22082.032099 -12603.207615  -1591.012365     97.314136
PR04 -20663.155714  -3574.453193  14551.106097    229.850694
PR05  -8301.991173   7555.246598  22921.458945    129.219365
PR07  22322.114851  12371.525611    848.015804     79.113400
PR08  20648.952869   3275.578817 -14569.165182    -74.896269
PR09  -1735.989838  13884.694969 -21330.083866    178.257888
PR11  21859.694857  -8320.547511 -10149.630492     29.541775
PR12  17395.107560 -16242.477057   9218.734331     38.417338
PR13   4407.523680 -14574.095025  20448.933085    -45.799383
PR14 -14001.861436  -3168.206414  21097.878632     26.299057
PR15 -22199.964144   9061.529209   8726.236117     80.911643
PR16 -17539.725970  16239.051458  -8949.570355     24.417389
PR17  -9120.617221 -14271.973505 -19081.397221     73.597451
PR18 -10351.296620   3416.781646 -23053.476602    134.710443
PR19  -7607.456641  17907.834571 -16500.475035   -271.282047
PR20   1123.990713  25279.215008   3422.734508   -110.530966
PR21   8955.989482  14240.539664  19163.894305    -88.720437
PR22  10791.276409  -4284.670217  22734.695255    115.020100
PR24  -2516.112968 -25080.560717  -3929.002526    -49.841047
PR25   8852.882607  14401.909296  19099.408680    -25.992427
PR26      0.000000      0.000000      0.000000    -26.973948
EOF
